[
    {
        "Altitude(m)": 556565.8614689744,
        "Argument of Periapsis(deg)": 0.026491964442854003,
        "Eccentricity": 0.0,
        "Inclination(deg)": 53.0,
        "Latitude(deg)": 38.17581812710338,
        "Longitude(deg)": 90.7136975407117,
        "Mean Anomaly(deg)": 129.45737147031036,
        "RAAN(deg)": 49.96057347411207,
        "Satellite Name": "Starlink Shell 1 225",
        "Satellite Number": 225,
        "Semi-Major Axis(m)": 6931778.249405717,
        "Time(s)": 760
    },
    {
        "Altitude(m)": 556482.4920907916,
        "Argument of Periapsis(deg)": 0.02684054292236524,
        "Eccentricity": 0.0,
        "Inclination(deg)": 53.0,
        "Latitude(deg)": 37.76852054884054,
        "Longitude(deg)": 91.27701634675066,
        "Mean Anomaly(deg)": 130.08420267386708,
        "RAAN(deg)": 49.96005470403459,
        "Satellite Name": "Starlink Shell 1 225",
        "Satellite Number": 225,
        "Semi-Major Axis(m)": 6931778.249405717,
        "Time(s)": 770
    },
    {
        "Altitude(m)": 556399.1930385283,
        "Argument of Periapsis(deg)": 0.027189121401876473,
        "Eccentricity": 0.0,
        "Inclination(deg)": 53.0,
        "Latitude(deg)": 37.358126346978516,
        "Longitude(deg)": 91.83372081050376,
        "Mean Anomaly(deg)": 130.71103387742377,
        "RAAN(deg)": 49.95953593395713,
        "Satellite Name": "Starlink Shell 1 225",
        "Satellite Number": 225,
        "Semi-Major Axis(m)": 6931778.249405717,
        "Time(s)": 780
    },
    {
        "Altitude(m)": 556316.0195808228,
        "Argument of Periapsis(deg)": 0.02753769988138771,
        "Eccentricity": 0.0,
        "Inclination(deg)": 53.0,
        "Latitude(deg)": 36.94471296031124,
        "Longitude(deg)": 92.38393170644828,
        "Mean Anomaly(deg)": 131.3378650809805,
        "RAAN(deg)": 49.95901716387965,
        "Satellite Name": "Starlink Shell 1 225",
        "Satellite Number": 225,
        "Semi-Major Axis(m)": 6931778.249405717,
        "Time(s)": 790
    },
    {
        "Altitude(m)": 556233.0271319835,
        "Argument of Periapsis(deg)": 0.02788627836089895,
        "Eccentricity": 0.0,
        "Inclination(deg)": 53.0,
        "Latitude(deg)": 36.5283561240441,
        "Longitude(deg)": 92.9277691769281,
        "Mean Anomaly(deg)": 131.9646962845372,
        "RAAN(deg)": 49.958498393802174,
        "Satellite Name": "Starlink Shell 1 225",
        "Satellite Number": 225,
        "Semi-Major Axis(m)": 6931778.249405717,
        "Time(s)": 800
    },
    {
        "Altitude(m)": 556150.2712235625,
        "Argument of Periapsis(deg)": 0.02823485684041019,
        "Eccentricity": 0.0,
        "Inclination(deg)": 53.0,
        "Latitude(deg)": 36.10912989710643,
        "Longitude(deg)": 93.46535309655759,
        "Mean Anomaly(deg)": 132.59152748809393,
        "RAAN(deg)": 49.95797962372471,
        "Satellite Name": "Starlink Shell 1 225",
        "Satellite Number": 225,
        "Semi-Major Axis(m)": 6931778.249405717,
        "Time(s)": 810
    },
    {
        "Altitude(m)": 556067.8074758659,
        "Argument of Periapsis(deg)": 0.028583435319921423,
        "Eccentricity": 0.0,
        "Inclination(deg)": 53.0,
        "Latitude(deg)": 35.6871066906695,
        "Longitude(deg)": 93.99680344826177,
        "Mean Anomaly(deg)": 133.21835869165062,
        "RAAN(deg)": 49.957460853647234,
        "Satellite Name": "Starlink Shell 1 225",
        "Satellite Number": 225,
        "Semi-Major Axis(m)": 6931778.249405717,
        "Time(s)": 820
    },
    {
        "Altitude(m)": 555985.6915693166,
        "Argument of Periapsis(deg)": 0.028932013799432665,
        "Eccentricity": 0.0,
        "Inclination(deg)": 53.0,
        "Latitude(deg)": 35.262357297695935,
        "Longitude(deg)": 94.52223919748053,
        "Mean Anomaly(deg)": 133.84518989520737,
        "RAAN(deg)": 49.95694208356976,
        "Satellite Name": "Starlink Shell 1 225",
        "Satellite Number": 225,
        "Semi-Major Axis(m)": 6931778.249405717,
        "Time(s)": 830
    },
    {
        "Altitude(m)": 555903.9792158077,
        "Argument of Periapsis(deg)": 0.029280592278943897,
        "Eccentricity": 0.0,
        "Inclination(deg)": 53.0,
        "Latitude(deg)": 34.83495092335992,
        "Longitude(deg)": 95.04177868969548,
        "Mean Anomaly(deg)": 134.47202109876406,
        "RAAN(deg)": 49.956423313492294,
        "Satellite Name": "Starlink Shell 1 225",
        "Satellite Number": 225,
        "Semi-Major Axis(m)": 6931778.249405717,
        "Time(s)": 840
    },
    {
        "Altitude(m)": 555822.7261299423,
        "Argument of Periapsis(deg)": 0.029629170758455132,
        "Eccentricity": 0.0,
        "Inclination(deg)": 53.0,
        "Latitude(deg)": 34.40495521618845,
        "Longitude(deg)": 95.55554005783105,
        "Mean Anomaly(deg)": 135.09885230232084,
        "RAAN(deg)": 49.95590454341481,
        "Satellite Name": "Starlink Shell 1 225",
        "Satellite Number": 225,
        "Semi-Major Axis(m)": 6931778.249405717,
        "Time(s)": 850
    },
    {
        "Altitude(m)": 555741.9880002534,
        "Argument of Periapsis(deg)": 0.02997774923796637,
        "Eccentricity": 0.0,
        "Inclination(deg)": 53.0,
        "Latitude(deg)": 33.97243629978793,
        "Longitude(deg)": 96.0636399579963,
        "Mean Anomaly(deg)": 135.7256835058775,
        "RAAN(deg)": 49.95538577333734,
        "Satellite Name": "Starlink Shell 1 225",
        "Satellite Number": 225,
        "Semi-Major Axis(m)": 6931778.249405717,
        "Time(s)": 860
    },
    {
        "Altitude(m)": 555661.8204603678,
        "Argument of Periapsis(deg)": 0.030326327717477602,
        "Eccentricity": 0.0,
        "Inclination(deg)": 53.0,
        "Latitude(deg)": 33.537458805029026,
        "Longitude(deg)": 96.56619483545695,
        "Mean Anomaly(deg)": 136.3525147094342,
        "RAAN(deg)": 49.954867003259864,
        "Satellite Name": "Starlink Shell 1 225",
        "Satellite Number": 225,
        "Semi-Major Axis(m)": 6931778.249405717,
        "Time(s)": 870
    },
    {
        "Altitude(m)": 555582.2790601836,
        "Argument of Periapsis(deg)": 0.030674906196988847,
        "Eccentricity": 0.0,
        "Inclination(deg)": 53.0,
        "Latitude(deg)": 33.10008590257564,
        "Longitude(deg)": 97.06331967739439,
        "Mean Anomaly(deg)": 136.97934591299094,
        "RAAN(deg)": 49.954348233182394,
        "Satellite Name": "Starlink Shell 1 225",
        "Satellite Number": 225,
        "Semi-Major Axis(m)": 6931778.249405717,
        "Time(s)": 880
    },
    {
        "Altitude(m)": 555503.4192370172,
        "Argument of Periapsis(deg)": 0.031023484676500086,
        "Eccentricity": 0.0,
        "Inclination(deg)": 53.0,
        "Latitude(deg)": 32.660379335652145,
        "Longitude(deg)": 97.5551284543787,
        "Mean Anomaly(deg)": 137.60617711654766,
        "RAAN(deg)": 49.953829463104924,
        "Satellite Name": "Starlink Shell 1 225",
        "Satellite Number": 225,
        "Semi-Major Axis(m)": 6931778.249405717,
        "Time(s)": 890
    },
    {
        "Altitude(m)": 555425.2962867564,
        "Argument of Periapsis(deg)": 0.03137206315601132,
        "Eccentricity": 0.0,
        "Inclination(deg)": 53.0,
        "Latitude(deg)": 32.218399452953165,
        "Longitude(deg)": 98.04173456909712,
        "Mean Anomaly(deg)": 138.23300832010437,
        "RAAN(deg)": 49.95331069302745,
        "Satellite Name": "Starlink Shell 1 225",
        "Satellite Number": 225,
        "Semi-Major Axis(m)": 6931778.249405717,
        "Time(s)": 900
    },
    {
        "Altitude(m)": 555347.9653350543,
        "Argument of Periapsis(deg)": 0.03172064163552255,
        "Eccentricity": 0.0,
        "Inclination(deg)": 53.0,
        "Latitude(deg)": 31.774205241609206,
        "Longitude(deg)": 98.52324979899646,
        "Mean Anomaly(deg)": 138.8598395236611,
        "RAAN(deg)": 49.95279192294998,
        "Satellite Name": "Starlink Shell 1 225",
        "Satellite Number": 225,
        "Semi-Major Axis(m)": 6931778.249405717,
        "Time(s)": 910
    },
    {
        "Altitude(m)": 555271.4813085577,
        "Argument of Periapsis(deg)": 0.0320692201150338,
        "Eccentricity": 0.0,
        "Inclination(deg)": 53.0,
        "Latitude(deg)": 31.327854360128878,
        "Longitude(deg)": 98.99978475814628,
        "Mean Anomaly(deg)": 139.48667072721778,
        "RAAN(deg)": 49.95227315287251,
        "Satellite Name": "Starlink Shell 1 225",
        "Satellite Number": 225,
        "Semi-Major Axis(m)": 6931778.249405717,
        "Time(s)": 920
    },
    {
        "Altitude(m)": 555195.8989061869,
        "Argument of Periapsis(deg)": 0.032417798594545036,
        "Eccentricity": 0.0,
        "Inclination(deg)": 53.0,
        "Latitude(deg)": 30.879403171247553,
        "Longitude(deg)": 99.4714493650212,
        "Mean Anomaly(deg)": 140.1135019307745,
        "RAAN(deg)": 49.95175438279503,
        "Satellite Name": "Starlink Shell 1 225",
        "Satellite Number": 225,
        "Semi-Major Axis(m)": 6931778.249405717,
        "Time(s)": 930
    },
    {
        "Altitude(m)": 555121.2725704607,
        "Argument of Periapsis(deg)": 0.03276637707405627,
        "Eccentricity": 0.0,
        "Inclination(deg)": 53.0,
        "Latitude(deg)": 30.428906774618216,
        "Longitude(deg)": 99.93835180292346,
        "Mean Anomaly(deg)": 140.74033313433122,
        "RAAN(deg)": 49.951235612717554,
        "Satellite Name": "Starlink Shell 1 225",
        "Satellite Number": 225,
        "Semi-Major Axis(m)": 6931778.249405717,
        "Time(s)": 940
    }
]